[{"OBJECT_NAME":"STARLINK-31053","OBJECT_ID":"2023-192U","EPOCH":"2026-03-09T09:03:19.850976","MEAN_MOTION":15.3019163,"ECCENTRICITY":0.00014658,"INCLINATION":53.1606,"RA_OF_ASC_NODE":64.4627,"ARG_OF_PERICENTER":95.422,"MEAN_ANOMALY":264.6948,"EPHEMERIS_TYPE":0,"CLASSIFICATION_TYPE":"U","NORAD_CAT_ID":58549,"ELEMENT_SET_NO":999,"REV_AT_EPOCH":12593,"BSTAR":9.383993e-6,"MEAN_MOTION_DOT":-8.1e-7,"MEAN_MOTION_DDOT":0},{"OBJECT_NAME":"SCS-01 H","OBJECT_ID":"2025-100H","EPOCH":"2026-03-09T23:19:05.376864","MEAN_MOTION":15.31767757,"ECCENTRICITY":0.00071581,"INCLINATION":97.3749,"RA_OF_ASC_NODE":145.8085,"ARG_OF_PERICENTER":277.8492,"MEAN_ANOMALY":82.1937,"EPHEMERIS_TYPE":0,"CLASSIFICATION_TYPE":"U","NORAD_CAT_ID":63989,"ELEMENT_SET_NO":999,"REV_AT_EPOCH":4566,"BSTAR":0.0011436254,"MEAN_MOTION_DOT":0.00035149,"MEAN_MOTION_DDOT":0}]
